MONOLITH                
1 49052U 21068A   26068.54548855  .00008348  00000+0  53656-3 0  9993
2 49052  37.0220 141.2957 0002679 131.6464 228.4511 15.08010119252226
STARLINK-3707           
1 52133U 22029AX  26068.40279815  .00003046  00000+0  20924-3 0  9999
2 52133  53.2170  70.4056 0001201  91.3981 268.7149 15.08863217220890
